OBJECT_NAME,OBJECT_ID,EPOCH,MEAN_MOTION,ECCENTRICITY,INCLINATION,RA_OF_ASC_NODE,ARG_OF_PERICENTER,MEAN_ANOMALY,EPHEMERIS_TYPE,CLASSIFICATION_TYPE,NORAD_CAT_ID,ELEMENT_SET_NO,REV_AT_EPOCH,BSTAR,MEAN_MOTION_DOT,MEAN_MOTION_DDOT
CASSIOPE,2013-055A,2024-11-28T21:10:20.629344,14.82829376,.0449683,80.9489,10.8386,111.0857,253.9040,0,U,39265,999,58268,.68486E-3,.37449E-3,0
STSAT-3,2013-066G,2024-11-29T04:02:04.946784,14.97365409,.0020316,97.5411,307.3565,159.9018,200.3008,0,U,39422,999,59948,.64147E-3,.7429E-4,0
SWARM B,2013-067A,2024-11-28T22:14:18.348000,15.22810279,.000275,87.7484,153.2693,86.2322,273.9239,0,U,39451,999,59704,.36391E-3,.8538E-4,0
SWARM A,2013-067B,2024-11-28T20:53:50.492256,15.37071472,.0003676,87.3398,263.5953,90.6762,269.4913,0,U,39452,999,61901,.5646E-3,.2053E-3,0
SWARM C,2013-067C,2024-11-29T03:08:40.378560,15.37080144,.0003676,87.3400,262.0899,90.4042,269.7632,0,U,39453,999,61906,.48369E-3,.17593E-3,0
BRITE-CA1 (TORONTO),2014-033L,2024-11-29T03:50:02.152896,14.70582151,.0080332,97.8997,105.8367,285.3534,73.8807,0,U,40020,999,55921,.58489E-3,.3684E-4,0
OCO 2,2014-035A,2024-11-28T20:49:50.358144,14.57098615,.0001581,98.2198,272.2631,85.3742,274.7637,0,U,40059,999,55372,.45432E-3,.2002E-4,0
BRITE-PL2 (HEWELIUSZ),2014-049B,2024-11-28T17:03:48.212352,14.90808971,.0015254,97.8881,72.8800,177.8501,182.2785,0,U,40119,999,55707,.74112E-3,.7255E-4,0
RESURS-P 2,2014-087A,2024-11-29T03:42:50.936544,15.82502408,.0003072,97.1384,63.7739,35.3306,324.8167,0,U,40360,999,55691,.67751E-3,.142434E-2,0
MMS 1,2015-011A,2024-11-28T22:00:00.999936,0.28502620,.8941171,56.9177,1.8616,154.0732,78.2744,0,U,40482,999,135,0,.19E-6,0
MMS 2,2015-011B,2024-11-28T22:00:00.999936,0.28500452,.8941001,56.9173,1.8620,154.0741,76.8232,0,U,40483,999,137,0,.19E-6,0
MMS 3,2015-011C,2024-11-28T22:00:00.999936,0.28500935,.8940952,56.9193,1.8602,154.0749,77.0376,0,U,40484,999,137,0,.19E-6,0
MMS 4,2015-011D,2024-11-28T22:00:00.999936,0.28502819,.8940236,56.9106,1.8673,154.0677,67.0917,0,U,40485,999,137,0,.19E-6,0
ASTROSAT,2015-052A,2024-11-28T23:59:35.398464,14.80434548,.000927,5.9969,258.0819,254.4044,105.5060,0,U,40930,999,49591,.50022E-3,.4582E-4,0
DAMPE,2015-078A,2024-11-29T03:01:10.678656,15.28333452,.0010775,97.4397,327.2103,281.1677,78.8351,0,U,41173,999,49816,.13784E-3,.3733E-4,0
PISAT,2016-059B,2024-11-28T11:07:19.538112,14.66995519,.0029268,97.8250,348.0089,208.5887,151.3714,0,U,41784,999,43673,.65842E-3,.3667E-4,0
HXMT (HUIYAN),2017-034A,2024-11-29T03:28:43.984992,15.19440568,.0009803,43.0133,78.9378,100.0334,260.1622,0,U,42758,999,41190,.82016E-3,.17532E-3,0
FLYING LAPTOP,2017-042G,2024-11-29T03:14:51.354240,14.96907217,.0011461,97.3881,145.7851,239.9817,120.0269,0,U,42831,999,40179,.60132E-3,.686E-4,0
ZHANGHENG 1 (CSES),2018-015C,2024-11-29T03:45:15.200352,15.20476840,.000637,97.6264,119.7099,339.5189,20.5790,0,U,43194,999,37876,.12192E-2,.26643E-3,0
SALSAT,2020-068K,2024-11-28T15:39:34.524288,15.17734836,.0014869,97.8381,297.7755,105.6596,254.6278,0,U,46495,999,22921,.85534E-3,.17263E-3,0
IXPE,2021-121A,2024-11-28T22:00:00.999936,15.01838973,.0008364,0.2289,248.1744,212.2885,334.7446,0,U,49954,999,580,.92599E-3,.13307E-3,0
