SALSAT                  
1 46495U 20068K   24333.65248292  .00017263  00000+0  85534-3 0  9993
2 46495  97.8381 297.7755 0014869 105.6596 254.6278 15.17734836229213
BRITE-CA1 (TORONTO)     
1 40020U 14033L   24334.15974714  .00003684  00000+0  58489-3 0  9998
2 40020  97.8997 105.8367 0080332 285.3534  73.8807 14.70582151559212
BRITE-PL2 (HEWELIUSZ)   
1 40119U 14049B   24333.71097468  .00007255  00000+0  74112-3 0  9996
2 40119  97.8881  72.8800 0015254 177.8501 182.2785 14.90808971557073
RESURS-P 2              
1 40360U 14087A   24334.15475621  .00142434  00000+0  67751-3 0  9996
2 40360  97.1384  63.7739 0003072  35.3306 324.8167 15.82502408556916
CASSIOPE                
1 39265U 13055A   24333.88218321  .00037449  00000+0  68486-3 0  9998
2 39265  80.9489  10.8386 0449683 111.0857 253.9040 14.82829376582680
STSAT-3                 
1 39422U 13066G   24334.16811281  .00007429  00000+0  64147-3 0  9996
2 39422  97.5411 307.3565 0020316 159.9018 200.3008 14.97365409599489
SWARM B                 
1 39451U 13067A   24333.92660125  .00008538  00000+0  36391-3 0  9993
2 39451  87.7484 153.2693 0002750  86.2322 273.9239 15.22810279597045
SWARM A                 
1 39452U 13067B   24333.87072329  .00020530  00000+0  56460-3 0  9996
2 39452  87.3398 263.5953 0003676  90.6762 269.4913 15.37071472619016
SWARM C                 
1 39453U 13067C   24334.13102290  .00017593  00000+0  48369-3 0  9992
2 39453  87.3400 262.0899 0003676  90.4042 269.7632 15.37080144619065
OCO 2                   
1 40059U 14035A   24333.86794396  .00002002  00000+0  45432-3 0  9992
2 40059  98.2198 272.2631 0001581  85.3742 274.7637 14.57098615553728
MMS 1                   
1 40482U 15011A   24333.91667824  .00000019  00000+0  00000+0 0  9992
2 40482  56.9177   1.8616 8941171 154.0732  78.2744  0.28502620  1356
MMS 2                   
1 40483U 15011B   24333.91667824  .00000019  00000+0  00000+0 0  9993
2 40483  56.9173   1.8620 8941001 154.0741  76.8232  0.28500452  1379
MMS 3                   
1 40484U 15011C   24333.91667824  .00000019  00000+0  00000+0 0  9994
2 40484  56.9193   1.8602 8940952 154.0749  77.0376  0.28500935  1372
MMS 4                   
1 40485U 15011D   24333.91667824  .00000019  00000+0  00000+0 0  9995
2 40485  56.9106   1.8673 8940236 154.0677  67.0917  0.28502819  1373
ASTROSAT                
1 40930U 15052A   24333.99971526  .00004582  00000+0  50022-3 0  9992
2 40930   5.9969 258.0819 0009270 254.4044 105.5060 14.80434548495916
DAMPE                   
1 41173U 15078A   24334.12581804  .00003733  00000+0  13784-3 0  9993
2 41173  97.4397 327.2103 0010775 281.1677  78.8351 15.28333452498163
PISAT                   
1 41784U 16059B   24333.46342058  .00003667  00000+0  65842-3 0  9991
2 41784  97.8250 348.0089 0029268 208.5887 151.3714 14.66995519436734
HXMT (HUIYAN)           
1 42758U 17034A   24334.14495353  .00017532  00000+0  82016-3 0  9998
2 42758  43.0133  78.9378 0009803 100.0334 260.1622 15.19440568411902
FLYING LAPTOP           
1 42831U 17042G   24334.13531660  .00006860  00000+0  60132-3 0  9997
2 42831  97.3881 145.7851 0011461 239.9817 120.0269 14.96907217401796
ZHANGHENG 1 (CSES)      
1 43194U 18015C   24334.15642593  .00026643  00000+0  12192-2 0  9994
2 43194  97.6264 119.7099 0006370 339.5189  20.5790 15.20476840378768
IXPE                    
1 49954U 21121A   24333.91667824  .00013307  00000+0  92599-3 0  9996
2 49954   0.2289 248.1744 0008364 212.2885 334.7446 15.01838973  5802
